NORAD_CAT_ID,OBJECT_NAME,OBJECT_TYPE,EPOCH,MEAN_MOTION,ECCENTRICITY,INCLINATION,RA_OF_ASC_NODE,ARG_OF_PERICENTER,MEAN_ANOMALY,BSTAR,MEAN_MOTION_DOT,MEAN_MOTION_DDOT,TLE_LINE0,TLE_LINE1,TLE_LINE2,SEMIMAJOR_AXIS,PERIOD,APOGEE,PERIGEE,DECAYED
51136.0,STARLINK-3253,PAYLOAD,2022-09-06 12:09:34,15.0883467,0.0001906999999999,53.2159,286.0951,50.899,309.2172,-1.6704e-05,-5.54e-06,0.0,0 STARLINK-3253,1 51136U 22005AJ  22249.50664564 -.00000554  00000-0 -16704-4 0  9998,2 51136  53.2159 286.0951 0001907  50.8990 309.2172 15.08834670 35466,6917.897,95.438,541.081,538.442,0.0
51136.0,STARLINK-3253,PAYLOAD,2022-09-07 07:14:11,15.08844832,0.0001919,53.2165,282.5265,52.074,308.0425,5.4437e-06,-2.02e-06,0.0,0 STARLINK-3253,1 51136U 22005AJ  22250.30152077 -.00000202  00000-0  54437-5 0  9994,2 51136  53.2165 282.5265 0001919  52.0740 308.0425 15.08844832 36710,6917.866,95.437,541.058,538.403,0.0
51136.0,STARLINK-3253,PAYLOAD,2022-09-07 12:00:21,15.08835926,0.0002035,53.2164,281.6343,47.6607,312.4557,-0.00011981,-2.194e-05,0.0,0 STARLINK-3253,1 51136U 22005AJ  22250.50025007 -.00002194  00000-0 -11981-3 0  9996,2 51136  53.2164 281.6343 0002035  47.6607 312.4557 15.08835926 35615,6917.893,95.438,541.1659999999998,538.35,0.0
51136.0,STARLINK-3253,PAYLOAD,2022-09-07 13:35:44,15.08834908,0.0001716,53.2164,281.3371,51.2021,308.9124,-0.00013087,-2.37e-05,0.0,0 STARLINK-3253,1 51136U 22005AJ  22250.56649002 -.00002370  00000-0 -13087-3 0  9994,2 51136  53.2164 281.3371 0001716  51.2021 308.9124 15.08834908 36754,6917.896,95.438,540.948,538.5740000000002,0.0
51136.0,STARLINK-3253,PAYLOAD,2022-09-08 11:51:08,15.08831438,0.0001943,53.2163,277.1742,48.7944,311.3215,8.7515e-05,1.105e-05,0.0,0 STARLINK-3253,1 51136U 22005AJ  22251.49385191  .00001105  00000-0  87515-4 0  9994,2 51136  53.2163 277.1742 0001943  48.7944 311.3215 15.08831438 35769,6917.906999999997,95.438,541.116,538.427,0.0
51136.0,STARLINK-3253,PAYLOAD,2022-09-09 03:44:59,15.08841221,0.0001966,53.2161,274.2005,49.8443,310.2721,9.0706e-05,1.156e-05,0.0,0 STARLINK-3253,1 51136U 22005AJ  22252.15624855  .00001156  00000-0  90706-4 0  9993,2 51136  53.2161 274.2005 0001966  49.8443 310.2721 15.08841221 36995,6917.877,95.437,541.102,538.382,0.0
51136.0,STARLINK-3253,PAYLOAD,2022-09-09 11:41:55,15.08841349,0.0001955999999999,53.2148,272.712,47.9891,312.1268,0.00011319,1.514e-05,0.0,0 STARLINK-3253,1 51136U 22005AJ  22252.48744986  .00001514  00000-0  11319-3 0  9997,2 51136  53.2148 272.7120 0001956  47.9891 312.1268 15.08841349 35915,6917.876,95.437,541.094,538.388,0.0
51136.0,STARLINK-3253,PAYLOAD,2022-09-09 13:17:19,15.08833769,0.000236,53.2161,272.418,45.0619,315.0565,6.451e-05,7.38e-06,0.0,0 STARLINK-3253,1 51136U 22005AJ  22252.55369567  .00000738  00000-0  64510-4 0  9992,2 51136  53.2161 272.4180 0002360  45.0619 315.0565 15.08833769 37056,6917.899,95.438,541.3969999999998,538.132,0.0
51136.0,STARLINK-3253,PAYLOAD,2022-09-10 11:32:43,15.08840054,0.0001974,53.2153,268.2535,49.4599,310.6565,0.00010172,1.331e-05,0.0,0 STARLINK-3253,1 51136U 22005AJ  22253.48105350  .00001331  00000-0  10172-3 0  9997,2 51136  53.2153 268.2535 0001974  49.4599 310.6565 15.08840054 36065,6917.88,95.438,541.111,538.38,0.0
51136.0,STARLINK-3253,PAYLOAD,2022-09-10 13:08:06,15.08840501,0.0001991,53.2152,267.9558,49.7339,310.3827,0.00010518,1.386e-05,0.0,0 STARLINK-3253,1 51136U 22005AJ  22253.54729349  .00001386  00000-0  10518-3 0  9998,2 51136  53.2152 267.9558 0001991  49.7339 310.3827 15.08840501 36075,6917.879,95.438,541.121,538.367,0.0
51136.0,STARLINK-3253,PAYLOAD,2022-09-11 05:01:57,15.08849722,0.0001993,53.2151,264.982,49.9246,310.192,0.00015892,2.243e-05,0.0,0 STARLINK-3253,1 51136U 22005AJ  22254.20968777  .00002243  00000-0  15892-3 0  9995,2 51136  53.2151 264.9820 0001993  49.9246 310.1920 15.08849722 37307,6917.851,95.437,541.094,538.337,0.0
51136.0,STARLINK-3253,PAYLOAD,2022-09-11 09:48:06,15.08839313,0.0001756,53.2147,264.0884,43.1653,316.9477,1.2622e-05,-8.7e-07,0.0,0 STARLINK-3253,1 51136U 22005AJ  22254.40841106 -.00000087  00000-0  12622-4 0  9997,2 51136  53.2147 264.0884 0001756  43.1653 316.9477 15.08839313 36202,6917.882,95.438,540.962,538.533,0.0
51136.0,STARLINK-3253,PAYLOAD,2022-09-12 11:14:16,15.08847021,0.0001948,53.2149,259.3315,48.1895,311.9263,0.00021464,3.13e-05,0.0,0 STARLINK-3253,1 51136U 22005AJ  22255.46825097  .00003130  00000-0  21464-3 0  9999,2 51136  53.2149 259.3315 0001948  48.1895 311.9263 15.08847021 36366,6917.859,95.437,541.072,538.376,0.0
51136.0,STARLINK-3253,PAYLOAD,2022-09-12 12:49:39,15.08847007,0.0001931,53.2149,259.0341,48.48,311.6358,0.00021006,3.057e-05,0.0,0 STARLINK-3253,1 51136U 22005AJ  22255.53449069  .00003057  00000-0  21006-3 0  9998,2 51136  53.2149 259.0341 0001931  48.4800 311.6358 15.08847007 36370,6917.859,95.437,541.06,538.388,0.0
51136.0,STARLINK-3253,PAYLOAD,2022-09-13 06:18:54,15.08839615,0.0001965,53.215,255.763,50.551,309.5656,0.00022183,3.244e-05,0.0,0 STARLINK-3253,1 51136U 22005AJ  22256.26313355  .00003244  00000-0  22183-3 0  9992,2 51136  53.2150 255.7630 0001965  50.5510 309.5656 15.08839615 37616,6917.882,95.438,541.106,538.387,0.0
51136.0,STARLINK-3253,PAYLOAD,2022-09-13 09:29:41,15.08838057,0.0001978,53.2151,255.1683,49.9101,310.2064,0.00027778,4.135e-05,0.0,0 STARLINK-3253,1 51136U 22005AJ  22256.39561466  .00004135  00000-0  27778-3 0  9999,2 51136  53.2151 255.1683 0001978  49.9101 310.2064 15.08838057 36509,6917.886,95.438,541.12,538.383,0.0
51136.0,STARLINK-3253,PAYLOAD,2022-09-13 17:26:36,15.08846746,0.0001945,53.2154,253.6815,49.7379,310.3783,0.00022096,3.231e-05,0.0,0 STARLINK-3253,1 51136U 22005AJ  22256.72681042  .00003231  00000-0  22096-3 0  9993,2 51136  53.2154 253.6815 0001945  49.7379 310.3783 15.08846746 36559,6917.86,95.437,541.07,538.379,0.0
51136.0,STARLINK-3253,PAYLOAD,2022-09-14 10:55:50,15.08857726,0.0002000999999999,53.2162,250.411,48.4832,311.6332,-0.00026888,-4.567e-05,0.0,0 STARLINK-3253,1 51136U 22005AJ  22257.45544881 -.00004567  00000-0 -26888-3 0  9991,2 51136  53.2162 250.4110 0002001  48.4832 311.6332 15.08857726 36661,6917.826,95.436,541.075,538.307,0.0
51136.0,STARLINK-3253,PAYLOAD,2022-09-14 17:17:23,15.08841834,0.0001893,53.2162,249.2213,51.727,308.3892,5.2863e-06,-2.04e-06,0.0,0 STARLINK-3253,1 51136U 22005AJ  22257.72041342 -.00000204  00000-0  52863-5 0  9992,2 51136  53.2162 249.2213 0001893  51.7270 308.3892 15.08841834 37839,6917.875,95.437,541.049,538.43,0.0
51136.0,STARLINK-3253,PAYLOAD,2022-09-15 10:46:38,15.08834075,0.0002105,53.2163,245.9506,48.48,311.6373,3.647e-06,-2.3e-06,0.0,0 STARLINK-3253,1 51136U 22005AJ  22258.44905829 -.00000230  00000-0  36470-5 0  9996,2 51136  53.2163 245.9506 0002105  48.4800 311.6373 15.08834075 37949,6917.898,95.438,541.22,538.307,0.0
51136.0,STARLINK-3253,PAYLOAD,2022-09-16 09:02:03,15.08811847,0.0001924,53.2158,241.7877,50.5236,309.5926,0.00024654,3.635e-05,0.0,0 STARLINK-3253,1 51136U 22005AJ  22259.37643038  .00003635  00000-0  24654-3 0  9990,2 51136  53.2158 241.7877 0001924  50.5236 309.5926 15.08811847 36955,6917.965999999999,95.439,541.1619999999998,538.5,0.0
51136.0,STARLINK-3253,PAYLOAD,2022-09-17 04:06:40,15.08838586,0.0002061,53.2159,238.2191,49.3301,310.7870000000001,-8.0158e-06,-4.16e-06,0.0,0 STARLINK-3253,1 51136U 22005AJ  22260.17130342 -.00000416  00000-0 -80158-5 0  9998,2 51136  53.2159 238.2191 0002061  49.3301 310.7870 15.08838586 38209,6917.885,95.438,541.175,538.3240000000002,0.0
51136.0,STARLINK-3253,PAYLOAD,2022-09-17 08:52:49,15.08838236,0.000188,53.2159,237.3269,46.8947,313.2202,2.5614e-05,1.2e-06,0.0,0 STARLINK-3253,1 51136U 22005AJ  22260.37002294  .00000120  00000-0  25614-4 0  9999,2 51136  53.2159 237.3269 0001880  46.8947 313.2202 15.08838236 37108,6917.886,95.438,541.0509999999998,538.45,0.0
51136.0,STARLINK-3253,PAYLOAD,2022-09-17 15:14:22,15.08839046,0.000198,53.2164,236.1378,45.7768,314.3387,7.8936e-05,9.68e-06,0.0,0 STARLINK-3253,1 51136U 22005AJ  22260.63498100  .00000968  00000-0  78936-4 0  9998,2 51136  53.2164 236.1378 0001980  45.7768 314.3387 15.08839046 37142,6917.8830000000025,95.438,541.118,538.379,0.0
51136.0,STARLINK-3253,PAYLOAD,2022-09-18 08:43:37,15.08838815,0.0001914,53.2161,232.8663,44.2104,315.9041,8.360299999999999e-05,1.043e-05,0.0,0 STARLINK-3253,1 51136U 22005AJ  22261.36362457  .00001043  00000-0  83603-4 0  9996,2 51136  53.2161 232.8663 0001914  44.2104 315.9041 15.08838815 38388,6917.884,95.438,541.073,538.425,0.0
51136.0,STARLINK-3253,PAYLOAD,2022-09-19 06:59:00,15.08848528,0.0001973,53.2166,228.7035,50.9811,309.1356,0.00017667,2.525e-05,0.0,0 STARLINK-3253,1 51136U 22005AJ  22262.29097865  .00002525  00000-0  17667-3 0  9999,2 51136  53.2166 228.7035 0001973  50.9811 309.1356 15.08848528 37390,6917.854,95.437,541.0840000000002,538.354,0.0
51136.0,STARLINK-3253,PAYLOAD,2022-09-19 21:17:29,15.08842363,0.0001868,53.2168,226.0274,54.0916,306.0249,7.413600000000001e-05,8.92e-06,0.0,0 STARLINK-3253,1 51136U 22005AJ  22262.88714328  .00000892  00000-0  74136-4 0  9994,2 51136  53.2168 226.0274 0001868  54.0916 306.0249 15.08842363 38616,6917.873000000001,95.437,541.03,538.446,0.0
51136.0,STARLINK-3253,PAYLOAD,2022-09-20 06:49:48,15.08839312,0.0002481999999999,53.2167,224.2443,51.5031,308.6183,0.00017524,2.502e-05,0.0,0 STARLINK-3253,1 51136U 22005AJ  22263.28458398  .00002502  00000-0  17524-3 0  9998,2 51136  53.2167 224.2443 0002482  51.5031 308.6183 15.08839312 37542,6917.882,95.438,541.465,538.03,0.0
51136.0,STARLINK-3253,PAYLOAD,2022-09-20 14:46:43,15.08840725,0.0002181,53.2166,222.7563,50.6751,309.4435,0.00010092,1.318e-05,0.0,0 STARLINK-3253,1 51136U 22005AJ  22263.61578363  .00001318  00000-0  10092-3 0  9997,2 51136  53.2166 222.7563 0002181  50.6751 309.4435 15.08840725 37596,6917.878000000002,95.438,541.252,538.234,0.0
